{
  "type": "FeatureCollection",
  "features": [
    {
      "type": "Feature",
      "properties": {
        "norad_id": 34556,
        "name": "COSMOS 2251 DEB",
        "group": "cosmos-2251-debris",
        "lat": 71.30698280640974,
        "lon": 176.61840134832255,
        "alt_km": 629.3960476837419,
        "timestamp": "2025-12-15T20:48:54.278923+00:00",
        "meta_object_name": "COSMOS 2251 DEB",
        "meta_object_id": "1993-036US",
        "meta_epoch": "2025-12-14T19:02:32.443584",
        "meta_mean_motion": 14.77886348,
        "meta_eccentricity": 0.00074336,
        "meta_inclination": 74.0152,
        "meta_ra_of_asc_node": 120.8185,
        "meta_arg_of_pericenter": 180.6592,
        "meta_mean_anomaly": 308.5883,
        "meta_ephemeris_type": 0,
        "meta_classification_type": "U",
        "meta_norad_cat_id": 34556,
        "meta_element_set_no": 999,
        "meta_rev_at_epoch": 88359,
        "meta_bstar": 0.0020101225,
        "meta_mean_motion_dot": 0.00014472,
        "meta_mean_motion_ddot": 0,
        "tle_line1": "1 34556U 93036US  25348.79343106  .00014472  00000+0  20101-2 0  9992",
        "tle_line2": "2 34556  74.0152 120.8185 0007433 180.6592 308.5883 14.77886348883591"
      },
      "geometry": {
        "type": "Point",
        "coordinates": [
          176.61840134832255,
          71.30698280640974
        ]
      }
    },
    {
      "type": "Feature",
      "properties": {
        "norad_id": 34560,
        "name": "COSMOS 2251 DEB",
        "group": "cosmos-2251-debris",
        "lat": -74.00506050800509,
        "lon": 46.058071831365986,
        "alt_km": 654.7266842416293,
        "timestamp": "2025-12-15T20:48:54.278932+00:00",
        "meta_object_name": "COSMOS 2251 DEB",
        "meta_object_id": "1993-036UW",
        "meta_epoch": "2025-12-14T21:19:38.312832",
        "meta_mean_motion": 14.72205993,
        "meta_eccentricity": 0.00144983,
        "meta_inclination": 74.0152,
        "meta_ra_of_asc_node": 137.9458,
        "meta_arg_of_pericenter": 219.6079,
        "meta_mean_anomaly": 265.5618,
        "meta_ephemeris_type": 0,
        "meta_classification_type": "U",
        "meta_norad_cat_id": 34560,
        "meta_element_set_no": 999,
        "meta_rev_at_epoch": 88283,
        "meta_bstar": 0.0014482696,
        "meta_mean_motion_dot": 9.13e-05,
        "meta_mean_motion_ddot": 0,
        "tle_line1": "1 34560U 93036UW  25348.88863788  .00009130  00000+0  14483-2 0  9991",
        "tle_line2": "2 34560  74.0152 137.9458 0014498 219.6079 265.5618 14.72205993882830"
      },
      "geometry": {
        "type": "Point",
        "coordinates": [
          46.058071831365986,
          -74.00506050800509
        ]
      }
    },
    {
      "type": "Feature",
      "properties": {
        "norad_id": 34563,
        "name": "COSMOS 2251 DEB",
        "group": "cosmos-2251-debris",
        "lat": 67.42836514864814,
        "lon": -25.646085686315537,
        "alt_km": 739.9460153694426,
        "timestamp": "2025-12-15T20:48:54.278942+00:00",
        "meta_object_name": "COSMOS 2251 DEB",
        "meta_object_id": "1993-036UZ",
        "meta_epoch": "2025-12-14T16:24:41.264352",
        "meta_mean_motion": 14.46517582,
        "meta_eccentricity": 0.00138778,
        "meta_inclination": 74.0378,
        "meta_ra_of_asc_node": 200.0786,
        "meta_arg_of_pericenter": 293.9754,
        "meta_mean_anomaly": 131.688,
        "meta_ephemeris_type": 0,
        "meta_classification_type": "U",
        "meta_norad_cat_id": 34563,
        "meta_element_set_no": 999,
        "meta_rev_at_epoch": 88225,
        "meta_bstar": 0.00045824323,
        "meta_mean_motion_dot": 1.625e-05,
        "meta_mean_motion_ddot": 0,
        "tle_line1": "1 34563U 93036UZ  25348.68381093  .00001625  00000+0  45824-3 0  9991",
        "tle_line2": "2 34563  74.0378 200.0786 0013877 293.9754 131.6880 14.46517582882255"
      },
      "geometry": {
        "type": "Point",
        "coordinates": [
          -25.646085686315537,
          67.42836514864814
        ]
      }
    },
    {
      "type": "Feature",
      "properties": {
        "norad_id": 34564,
        "name": "COSMOS 2251 DEB",
        "group": "cosmos-2251-debris",
        "lat": 0.4670598149360381,
        "lon": 52.09224015049822,
        "alt_km": 771.2334176430932,
        "timestamp": "2025-12-15T20:48:54.278952+00:00",
        "meta_object_name": "COSMOS 2251 DEB",
        "meta_object_id": "1993-036VA",
        "meta_epoch": "2025-12-14T22:23:49.304256",
        "meta_mean_motion": 14.40694109,
        "meta_eccentricity": 0.00191127,
        "meta_inclination": 74.0319,
        "meta_ra_of_asc_node": 233.9536,
        "meta_arg_of_pericenter": 337.5957,
        "meta_mean_anomaly": 39.2124,
        "meta_ephemeris_type": 0,
        "meta_classification_type": "U",
        "meta_norad_cat_id": 34564,
        "meta_element_set_no": 999,
        "meta_rev_at_epoch": 88038,
        "meta_bstar": 0.00027082322,
        "meta_mean_motion_dot": 8.4e-06,
        "meta_mean_motion_ddot": 0,
        "tle_line1": "1 34564U 93036VA  25348.93320954  .00000840  00000+0  27082-3 0  9993",
        "tle_line2": "2 34564  74.0319 233.9536 0019112 337.5957  39.2124 14.40694109880388"
      },
      "geometry": {
        "type": "Point",
        "coordinates": [
          52.09224015049822,
          0.4670598149360381
        ]
      }
    },
    {
      "type": "Feature",
      "properties": {
        "norad_id": 34567,
        "name": "COSMOS 2251 DEB",
        "group": "cosmos-2251-debris",
        "lat": 36.233876447522846,
        "lon": 163.25669653737197,
        "alt_km": 862.0287128285827,
        "timestamp": "2025-12-15T20:48:54.278962+00:00",
        "meta_object_name": "COSMOS 2251 DEB",
        "meta_object_id": "1993-036VD",
        "meta_epoch": "2025-12-14T17:46:08.082912",
        "meta_mean_motion": 14.24018809,
        "meta_eccentricity": 0.00744027,
        "meta_inclination": 74.04,
        "meta_ra_of_asc_node": 153.1792,
        "meta_arg_of_pericenter": 227.006,
        "meta_mean_anomaly": 156.0751,
        "meta_ephemeris_type": 0,
        "meta_classification_type": "U",
        "meta_norad_cat_id": 34567,
        "meta_element_set_no": 999,
        "meta_rev_at_epoch": 87153,
        "meta_bstar": 0.00027217787,
        "meta_mean_motion_dot": 6.17e-06,
        "meta_mean_motion_ddot": 0,
        "tle_line1": "1 34567U 93036VD  25348.74037133  .00000617  00000+0  27218-3 0  9992",
        "tle_line2": "2 34567  74.0400 153.1792 0074402 227.0060 156.0751 14.24018809871530"
      },
      "geometry": {
        "type": "Point",
        "coordinates": [
          163.25669653737197,
          36.233876447522846
        ]
      }
    },
    {
      "type": "Feature",
      "properties": {
        "norad_id": 34569,
        "name": "COSMOS 2251 DEB",
        "group": "cosmos-2251-debris",
        "lat": -30.833213866413754,
        "lon": 22.349941319501312,
        "alt_km": 925.5409549693995,
        "timestamp": "2025-12-15T20:48:54.278972+00:00",
        "meta_object_name": "COSMOS 2251 DEB",
        "meta_object_id": "1993-036VF",
        "meta_epoch": "2025-12-14T22:12:56.153952",
        "meta_mean_motion": 14.24757953,
        "meta_eccentricity": 0.01574027,
        "meta_inclination": 73.9894,
        "meta_ra_of_asc_node": 194.1836,
        "meta_arg_of_pericenter": 22.0817,
        "meta_mean_anomaly": 42.514,
        "meta_ephemeris_type": 0,
        "meta_classification_type": "U",
        "meta_norad_cat_id": 34569,
        "meta_element_set_no": 999,
        "meta_rev_at_epoch": 86999,
        "meta_bstar": 0.00050942547,
        "meta_mean_motion_dot": 1.324e-05,
        "meta_mean_motion_ddot": 0,
        "tle_line1": "1 34569U 93036VF  25348.92564993  .00001324  00000+0  50943-3 0  9990",
        "tle_line2": "2 34569  73.9894 194.1836 0157402  22.0817  42.5140 14.24757953869994"
      },
      "geometry": {
        "type": "Point",
        "coordinates": [
          22.349941319501312,
          -30.833213866413754
        ]
      }
    },
    {
      "type": "Feature",
      "properties": {
        "norad_id": 34570,
        "name": "COSMOS 2251 DEB",
        "group": "cosmos-2251-debris",
        "lat": -42.23259191106317,
        "lon": 47.98568328693422,
        "alt_km": 987.3172488026103,
        "timestamp": "2025-12-15T20:48:54.278982+00:00",
        "meta_object_name": "COSMOS 2251 DEB",
        "meta_object_id": "1993-036VG",
        "meta_epoch": "2025-12-14T08:17:21.255360",
        "meta_mean_motion": 13.99822663,
        "meta_eccentricity": 0.01902594,
        "meta_inclination": 73.957,
        "meta_ra_of_asc_node": 215.4903,
        "meta_arg_of_pericenter": 97.6254,
        "meta_mean_anomaly": 18.4762,
        "meta_ephemeris_type": 0,
        "meta_classification_type": "U",
        "meta_norad_cat_id": 34570,
        "meta_element_set_no": 999,
        "meta_rev_at_epoch": 85623,
        "meta_bstar": 0.00061552902,
        "meta_mean_motion_dot": 1.032e-05,
        "meta_mean_motion_ddot": 0,
        "tle_line1": "1 34570U 93036VG  25348.34538490  .00001032  00000+0  61553-3 0  9996",
        "tle_line2": "2 34570  73.9570 215.4903 0190259  97.6254  18.4762 13.99822663856236"
      },
      "geometry": {
        "type": "Point",
        "coordinates": [
          47.98568328693422,
          -42.23259191106317
        ]
      }
    }
  ]
}